[{"OBJECT_NAME":"EDISON-1","OBJECT_ID":"2025-009B","EPOCH":"2026-03-09T19:16:13.822464","MEAN_MOTION":15.29042904,"ECCENTRICITY":0.00043285,"INCLINATION":97.4042,"RA_OF_ASC_NODE":151.6286,"ARG_OF_PERICENTER":306.4185,"MEAN_ANOMALY":53.6655,"EPHEMERIS_TYPE":0,"CLASSIFICATION_TYPE":"U","NORAD_CAT_ID":62610,"ELEMENT_SET_NO":999,"REV_AT_EPOCH":6375,"BSTAR":0.00052814963,"MEAN_MOTION_DOT":0.00014835,"MEAN_MOTION_DDOT":0},{"OBJECT_NAME":"STARLINK-35457","OBJECT_ID":"2025-259M","EPOCH":"2026-03-09T22:42:02.789568","MEAN_MOTION":15.27604667,"ECCENTRICITY":0.00028698,"INCLINATION":43.0058,"RA_OF_ASC_NODE":272.6221,"ARG_OF_PERICENTER":251.7755,"MEAN_ANOMALY":108.2784,"EPHEMERIS_TYPE":0,"CLASSIFICATION_TYPE":"U","NORAD_CAT_ID":66433,"ELEMENT_SET_NO":999,"REV_AT_EPOCH":1953,"BSTAR":0.0014322783,"MEAN_MOTION_DOT":0.00039394,"MEAN_MOTION_DDOT":0}]
